GSAT0101 (PRN E11)      
1 37846U 11060A   20110.29366870 -.00000086  00000-0  00000-0 0  9996
2 37846  56.5924  42.9094 0004609 343.6468  16.3140  1.70475631 52895
GSAT0102 (PRN E12)      
1 37847U 11060B   20114.61730625 -.00000073  00000-0  00000-0 0  9996
2 37847  56.5956  42.7899 0005666 325.1796 214.3622  1.70475717 52840
GSAT0103 (PRN E19)      
1 38857U 12055A   20114.44207733  .00000060  00000-0  00000-0 0  9998
2 38857  54.9677 163.2946 0004722 265.4453  94.5998  1.70473863 46874
GSAT0104 (PRN E20)      
1 38858U 12055B   20114.37642684  .00000060  00000-0  00000-0 0  9999
2 38858  54.9680 163.2957 0003571 270.9894  89.0687  1.70473810 46878
GSAT0201 (PRN E18)      
1 40128U 14050A   20114.96115688 -.00000097  00000-0  00000+0 0  9993
2 40128  50.5750   3.5461 1664635  97.5157 281.6226  1.85518908 38602
GSAT0202 (PRN E14)      
1 40129U 14050B   20114.14708453 -.00000100  00000-0  00000-0 0  9998
2 40129  50.6134   2.6131 1662772  98.3143 280.7964  1.85519688 38816
GSAT0203 (PRN E26)      
1 40544U 15017A   20114.18032090 -.00000075  00000-0  00000-0 0  9995
2 40544  56.3876  42.9443 0003807 282.2438  77.6979  1.70474702 30917
GSAT0204 (PRN E22)      
1 40545U 15017B   20113.96172110 -.00000075  00000-0  00000-0 0  9999
2 40545  56.3940  42.9660 0001273 279.2014  80.7677  1.70475205 31574
GSAT0205 (PRN E24)      
1 40889U 15045A   20113.61836370 -.00000018  00000-0  00000+0 0  9994
2 40889  56.1980 283.6346 0004517  31.6070 328.3821  1.70475294 28710
GSAT0206 (PRN E30)      
1 40890U 15045B   20114.42452737 -.00000016  00000-0  00000+0 0  9995
2 40890  56.1965 283.6089 0002697  35.2936 324.6846  1.70475409 28755
GSAT0209 (PRN E09)      
1 41174U 15079A   20114.01019751  .00000059  00000-0  00000-0 0  9995
2 41174  54.9821 163.0037 0005603 301.5723  58.4721  1.70473909 26659
GSAT0208 (PRN E08)      
1 41175U 15079B   20114.22995729  .00000060  00000-0  00000+0 0  9998
2 41175  54.9806 162.9971 0004815 300.7765  59.2752  1.70473989 27077
GSAT0211 (PRN E02)      
1 41549U 16030A   20114.35208369 -.00000015  00000-0  00000+0 0  9993
2 41549  56.3393 283.4617 0002414 348.3852  11.5694  1.70475048 24366
GSAT0210 (PRN E01)      
1 41550U 16030B   20113.47188903 -.00000017  00000-0  00000+0 0  9990
2 41550  56.3392 283.4873 0000991 300.2093  59.7430  1.70475231 24347
GSAT0207 (PRN E07)      
1 41859U 16069A   20113.71656489  .00000056  00000-0  00000+0 0  9992
2 41859  54.6402 163.3885 0005529 290.5566  69.4828  1.70473829 21335
GSAT0212 (PRN E03)      
1 41860U 16069B   20114.15658658  .00000058  00000-0  00000-0 0  9996
2 41860  54.6376 163.3752 0004387 306.9389  53.1200  1.70473831 21366
GSAT0213 (PRN E04)      
1 41861U 16069C   20113.93589375  .00000057  00000-0  00000-0 0  9990
2 41861  54.6414 163.3851 0004909 272.6074  87.4353  1.70473855 21365
GSAT0214 (PRN E05)      
1 41862U 16069D   20114.08287223  .00000058  00000-0  00000+0 0  9995
2 41862  54.6384 163.3767 0004054 276.9403  83.1126  1.70473919 21353
GSAT0215 (PRN E21)      
1 43055U 17079A   20113.98598301 -.00000016  00000-0  00000-0 0  9999
2 43055  56.3125 283.3164 0000321 296.6650  63.2924  1.70474294 14692
GSAT0216 (PRN E25)      
1 43056U 17079B   20114.27878072 -.00000016  00000-0  00000-0 0  9999
2 43056  56.3142 283.3078 0002204 276.2832  83.6518  1.70474420 14713
GSAT0217 (PRN E27)      
1 43057U 17079C   20113.32565587 -.00000018  00000-0  00000+0 0  9990
2 43057  56.3130 283.3346 0001933 304.8303  55.1138  1.70474357 14685
GSAT0218 (PRN E31)      
1 43058U 17079D   20113.54562941 -.00000017  00000-0  00000-0 0  9996
2 43058  56.3132 283.3259 0002615 269.2740  90.6577  1.70474367 14714
GSAT0221 (PRN E15)      
1 43564U 18060A   20114.03209152 -.00000075  00000-0  00000+0 0  9999
2 43564  56.7758  42.5612 0004996 293.4357  66.4962  1.70475729 10885
GSAT0222 (PRN E33)      
1 43565U 18060B   20114.25195067 -.00000074  00000-0  00000-0 0  9993
2 43565  56.7781  42.5544 0004960 301.4949  58.4419  1.70475621 10928
GSAT0219 (PRN E36)      
1 43566U 18060C   20113.88559045 -.00000076  00000-0  00000-0 0  9994
2 43566  56.7787  42.5661 0004546 298.3789  61.5591  1.70475636 10899
GSAT0220 (PRN E13)      
1 43567U 18060D   20114.10547006 -.00000075  00000-0  00000+0 0  9993
2 43567  56.7780  42.5608 0004646 299.6081  60.3304  1.70475782 10873
